NORAD_CAT_ID,OBJECT_NAME,OBJECT_TYPE,EPOCH,MEAN_MOTION,ECCENTRICITY,INCLINATION,RA_OF_ASC_NODE,ARG_OF_PERICENTER,MEAN_ANOMALY,BSTAR,MEAN_MOTION_DOT,MEAN_MOTION_DDOT,TLE_LINE0,TLE_LINE1,TLE_LINE2,SEMIMAJOR_AXIS,PERIOD,APOGEE,PERIGEE,DECAYED
51783.0,STARLINK-3628,PAYLOAD,2024-06-04 18:59:33,15.088416,0.0001381,53.2143,345.2549,87.8084,272.3067,5.9839e-05,6.65e-06,0.0,0 STARLINK-3628,1 51783U 22017R   24156.79135501  .00000665  00000-0  59839-4 0  9990,2 51783  53.2143 345.2549 0001381  87.8084 272.3067 15.08841600127004,6917.875,95.437,540.696,538.785,0.0
51783.0,STARLINK-3628,PAYLOAD,2024-06-04 22:10:19,15.08845317,0.0001634,53.2148,344.658,95.8888,264.2291,0.00013344,1.837e-05,0.0,0 STARLINK-3628,1 51783U 22017R   24156.92383261  .00001837  00000-0  13344-3 0  9995,2 51783  53.2148 344.6580 0001634  95.8888 264.2291 15.08845317125386,6917.864,95.437,540.86,538.599,0.0
51783.0,STARLINK-3628,PAYLOAD,2024-06-05 06:07:15,15.0883624,0.0001827,53.2171,343.172,96.3004,263.8196,-1.9551e-06,-3.19e-06,0.0,0 STARLINK-3628,1 51783U 22017R   24157.25503793 -.00000319  00000-0 -19551-5 0  9990,2 51783  53.2171 343.1720 0001827  96.3004 263.8196 15.08836240125432,6917.892,95.438,541.021,538.493,0.0
51783.0,STARLINK-3628,PAYLOAD,2024-06-05 22:01:06,15.08837449,0.0001679,53.2165,340.1983,98.6972,261.421,8.1936e-05,1.016e-05,0.0,0 STARLINK-3628,1 51783U 22017R   24157.91743832  .00001016  00000-0  81936-4 0  9991,2 51783  53.2165 340.1983 0001679  98.6972 261.4210 15.08837449125531,6917.888,95.438,540.915,538.592,0.0
51783.0,STARLINK-3628,PAYLOAD,2024-06-06 18:41:07,15.08841813,0.0001919,53.2121,336.3324,90.4439,269.6773,0.00012001,1.622e-05,0.0,0 STARLINK-3628,1 51783U 22017R   24158.77855829  .00001622  00000-0  12001-3 0  9995,2 51783  53.2121 336.3324 0001919  90.4439 269.6773 15.08841813125662,6917.875,95.437,541.067,538.412,0.0
51783.0,STARLINK-3628,PAYLOAD,2024-06-07 18:31:54,15.08836914,0.0001079,53.2145,331.8729,81.6262,278.4852,0.00012077,1.635e-05,0.0,0 STARLINK-3628,1 51783U 22017R   24159.77216333  .00001635  00000-0  12077-3 0  9994,2 51783  53.2145 331.8729 0001079  81.6262 278.4852 15.08836914127451,6917.89,95.438,540.501,539.008,0.0
51783.0,STARLINK-3628,PAYLOAD,2024-06-07 21:42:41,15.08833655,0.0001574,53.2124,331.2777,87.666,272.4512,0.00023401,3.438e-05,0.0,0 STARLINK-3628,1 51783U 22017R   24159.90464501  .00003438  00000-0  23401-3 0  9997,2 51783  53.2124 331.2777 0001574  87.6660 272.4512 15.08833655125839,6917.9,95.438,540.854,538.676,0.0
51783.0,STARLINK-3628,PAYLOAD,2024-06-08 04:04:13,15.08841021,0.0001776,53.2165,330.0894,93.2365,266.883,0.00014907,2.085e-05,0.0,0 STARLINK-3628,1 51783U 22017R   24160.16960182  .00002085  00000-0  14907-3 0  9991,2 51783  53.2165 330.0894 0001776  93.2365 266.8830 15.08841021125870,6917.877,95.437,540.971,538.514,0.0
51783.0,STARLINK-3628,PAYLOAD,2024-06-08 19:58:04,15.08847702,0.0001236,53.2145,327.1144,63.9479,296.164,0.00018379,2.639e-05,0.0,0 STARLINK-3628,1 51783U 22017R   24160.83199572  .00002639  00000-0  18379-3 0  9994,2 51783  53.2145 327.1144 0001236  63.9479 296.1640 15.08847702127615,6917.857,95.437,540.577,538.867,0.0
51783.0,STARLINK-3628,PAYLOAD,2024-06-09 03:55:00,15.08835271,0.0001825,53.2127,325.627,79.3076,280.8122,-3.4379e-06,-3.43e-06,0.0,0 STARLINK-3628,1 51783U 22017R   24161.16320216 -.00000343  00000-0 -34379-5 0  9994,2 51783  53.2127 325.6270 0001825  79.3076 280.8122 15.08835271127664,6917.895,95.438,541.022,538.497,0.0
51783.0,STARLINK-3628,PAYLOAD,2024-06-09 11:51:56,15.08827643,0.0001406,53.2161,324.1411,87.0858,273.0294,-0.00017072,-3.003e-05,0.0,0 STARLINK-3628,1 51783U 22017R   24161.49440726 -.00003003  00000-0 -17072-3 0  9994,2 51783  53.2161 324.1411 0001406  87.0858 273.0294 15.08827643127716,6917.918,95.438,540.756,538.811,0.0
51783.0,STARLINK-3628,PAYLOAD,2024-06-10 03:45:47,15.08839227,0.0001241,53.2167,321.1671,86.036,274.0774,1.3116e-05,-7.9e-07,0.0,0 STARLINK-3628,1 51783U 22017R   24162.15680259 -.00000079  00000-0  13116-4 0  9990,2 51783  53.2167 321.1671 0001241  86.0360 274.0774 15.08839227127817,6917.883,95.438,540.606,538.889,0.0
51783.0,STARLINK-3628,PAYLOAD,2024-06-10 18:04:15,15.08851819,0.0001492,53.2164,318.4926,91.8054,268.3109,0.00042102,6.421e-05,0.0,0 STARLINK-3628,1 51783U 22017R   24162.75295813  .00006421  00000-0  42102-3 0  9996,2 51783  53.2164 318.4926 0001492  91.8054 268.3109 15.08851819127907,6917.844,95.437,540.741,538.677,0.0
51783.0,STARLINK-3628,PAYLOAD,2024-06-10 22:50:24,15.0885796,0.0001447,53.2161,317.6005,99.921,260.1945,0.00048548,7.451e-05,0.0,0 STARLINK-3628,1 51783U 22017R   24162.95167633  .00007451  00000-0  48548-3 0  9990,2 51783  53.2161 317.6005 0001447  99.9210 260.1945 15.08857960126298,6917.825,95.436,540.692,538.689,0.0
51783.0,STARLINK-3628,PAYLOAD,2024-06-11 19:30:25,15.08851425,0.0002045,53.2175,313.7307,117.9897,242.1302,0.00044754,6.844e-05,0.0,0 STARLINK-3628,1 51783U 22017R   24163.81280027  .00006844  00000-0  44754-3 0  9999,2 51783  53.2175 313.7307 0002045 117.9897 242.1302 15.08851425128066,6917.845,95.437,541.125,538.296,0.0
51783.0,STARLINK-3628,PAYLOAD,2024-06-12 09:48:53,15.08852896,0.0001329,53.2167,311.0579,103.3242,256.7898,0.00029421,4.399e-05,0.0,0 STARLINK-3628,1 51783U 22017R   24164.40895624  .00004399  00000-0  29421-3 0  9997,2 51783  53.2167 311.0579 0001329 103.3242 256.7898 15.08852896128150,6917.841,95.437,540.625,538.787,0.0
51783.0,STARLINK-3628,PAYLOAD,2024-06-12 16:10:26,15.08859549,0.0001547,53.215,309.8705,86.7075,273.4094,0.00040304,6.136e-05,0.0,0 STARLINK-3628,1 51783U 22017R   24164.67391208  .00006136  00000-0  40304-3 0  9999,2 51783  53.2150 309.8705 0001547  86.7075 273.4094 15.08859549126556,6917.821,95.436,540.756,538.615,0.0
51783.0,STARLINK-3628,PAYLOAD,2024-06-13 03:18:08,15.08850059,0.0001358,53.2176,307.7857,73.8172,286.2969,0.00018183,2.608e-05,0.0,0 STARLINK-3628,1 51783U 22017R   24165.13759279  .00002608  00000-0  18183-3 0  9997,2 51783  53.2176 307.7857 0001358  73.8172 286.2969 15.08850059128264,6917.85,95.437,540.654,538.775,0.0
51783.0,STARLINK-3628,PAYLOAD,2024-06-13 12:50:27,15.08831474,0.0001488,53.2162,306.0013,107.6073,252.5082,-0.00024008,-4.106e-05,0.0,0 STARLINK-3628,1 51783U 22017R   24165.53503903 -.00004106  00000-0 -24008-3 0  9992,2 51783  53.2162 306.0013 0001488 107.6073 252.5082 15.08831474128324,6917.906,95.438,540.801,538.742,0.0
51783.0,STARLINK-3628,PAYLOAD,2024-06-13 14:25:50,15.08829378,0.0001392,53.2168,305.7057,103.2027,256.9121,-0.00023154,-3.97e-05,0.0,0 STARLINK-3628,1 51783U 22017R   24165.60128124 -.00003970  00000-0 -23154-3 0  9997,2 51783  53.2168 305.7057 0001392 103.2027 256.9121 15.08829378126699,6917.913,95.438,540.741,538.815,0.0
51783.0,STARLINK-3628,PAYLOAD,2024-06-13 16:01:13,15.08831811,0.0001287,53.2173,305.4097,89.6673,270.4466,-0.00021188,-3.658e-05,0.0,0 STARLINK-3628,1 51783U 22017R   24165.66752131 -.00003658  00000-0 -21188-3 0  9992,2 51783  53.2173 305.4097 0001287  89.6673 270.4466 15.08831811126703,6917.905,95.438,540.661,538.88,0.0
51783.0,STARLINK-3628,PAYLOAD,2024-06-14 14:16:38,15.08838991,0.0001283,53.2173,301.2469,85.0965,275.0173,0.0002854,4.257e-05,0.0,0 STARLINK-3628,1 51783U 22017R   24166.59488640  .00004257  00000-0  28540-3 0  9999,2 51783  53.2173 301.2469 0001283  85.0965 275.0173 15.08838991126847,6917.883,95.438,540.636,538.861,0.0
51783.0,STARLINK-3628,PAYLOAD,2024-06-14 19:02:47,15.0884684,0.0001306,53.2169,300.3539,87.7396,272.3746,0.00083048,0.00012956,0.0,0 STARLINK-3628,1 51783U 22017R   24166.79360746  .00012956  00000-0  83048-3 0  9996,2 51783  53.2169 300.3539 0001306  87.7396 272.3746 15.08846840126874,6917.859,95.437,540.628,538.821,0.0
51783.0,STARLINK-3628,PAYLOAD,2024-06-15 14:07:24,15.08869569,0.0001918,53.2171,296.7857,120.8727,239.2454,0.001021,0.00016012,0.0,0 STARLINK-3628,1 51783U 22017R   24167.58847969  .00016012  00000-0  10210-2 0  9998,2 51783  53.2171 296.7857 0001918 120.8727 239.2454 15.08869569126998,6917.79,95.436,540.982,538.328,0.0
51783.0,STARLINK-3628,PAYLOAD,2024-06-15 15:42:47,15.08885944,0.0001267,53.2164,296.4883,95.565,264.5486,0.0017472,0.00027663,0.0,0 STARLINK-3628,1 51783U 22017R   24167.65471851  .00027663  00000-0  17472-2 0  9990,2 51783  53.2164 296.4883 0001267  95.5650 264.5486 15.08885944127000,6917.74,95.435,540.481,538.728,0.0
51783.0,STARLINK-3628,PAYLOAD,2024-06-16 13:58:11,15.08830824,0.0001505,53.2161,292.323,72.5637,287.5519,-0.00046949,-7.75e-05,0.0,0 STARLINK-3628,1 51783U 22017R   24168.58208027 -.00007750  00000-0 -46949-3 0  9995,2 51783  53.2161 292.3230 0001505  72.5637 287.5519 15.08830824127147,6917.908,95.438,540.815,538.732,0.0
51783.0,STARLINK-3628,PAYLOAD,2024-06-16 17:08:58,15.08836551,0.00014,53.2163,291.7295,76.0149,284.0999,-0.00019257,-3.351e-05,0.0,0 STARLINK-3628,1 51783U 22017R   24168.71456043 -.00003351  00000-0 -19257-3 0  9998,2 51783  53.2163 291.7295 0001400  76.0149 284.0999 15.08836551127163,6917.891,95.438,540.724,538.787,0.0
51783.0,STARLINK-3628,PAYLOAD,2024-06-17 16:59:45,15.08834678,0.0001589,53.2166,287.2709,86.9753,273.1421,0.0001081,1.433e-05,0.0,0 STARLINK-3628,1 51783U 22017R   24169.70816904  .00001433  00000-0  10810-3 0  9997,2 51783  53.2166 287.2709 0001589  86.9753 273.1421 15.08834678127319,6917.897,95.438,540.861,538.662,0.0
51783.0,STARLINK-3628,PAYLOAD,2024-06-18 13:39:46,15.08844599,0.0001508,53.2142,283.4047,84.9539,275.1625,0.0004844,7.431e-05,0.0,0 STARLINK-3628,1 51783U 22017R   24170.56929195  .00007431  00000-0  48440-3 0  9994,2 51783  53.2142 283.4047 0001508  84.9539 275.1625 15.08844599129084,6917.866,95.437,540.775,538.688,0.0
51783.0,STARLINK-3628,PAYLOAD,2024-06-18 15:15:09,15.08847368,0.0001516,53.2155,283.1077,85.6279,274.4886,0.00058275,9e-05,0.0,0 STARLINK-3628,1 51783U 22017R   24170.63553173  .00009000  00000-0  58275-3 0  9992,2 51783  53.2155 283.1077 0001516  85.6279 274.4886 15.08847368127453,6917.858,95.437,540.772,538.674,0.0
